FLOCK 4S-23             
1 47545U 21006EF  23005.41822966  .00031409  00000+0  13902-2 0  9995
2 47545  97.4166  65.9462 0008589 296.8551  63.1806 15.21567107108882
FLOCK 4S-42             
1 47612U 21006EQ  23005.42647039  .00021722  00000+0  98948-3 0  9998
2 47612  97.4192  66.0162 0008389 312.9809  47.0722 15.20661196107901
FLOCK 4S-48             
1 47617U 21006EJ  23005.13440644  .00020795  00000+0  94786-3 0  9999
2 47617  97.4182  65.8387 0008844 289.2602  70.7676 15.20644056108845
FLOCK 4S-46             
1 47684U 21006EK  23005.41499094  .00021133  00000+0  96292-3 0  9998
2 47684  97.4184  66.0498 0005831 332.4248  27.6677 15.20672424107916
FLOCK 4S-47             
1 47685U 21006EL  23005.41091507  .00008358  00000+0  38468-3 0  9991
2 47685  97.4155  65.4552 0005099 321.7524  38.3349 15.20558018108854
FLOCK 4S-44             
1 47686U 21006EM  23005.40307923  .00022056  00000+0  10071-2 0  9993
2 47686  97.4198  66.1263 0009316 305.3269  54.7095 15.20568472107909
FLOCK 4S-43             
1 47687U 21006EN  23005.38472641  .00014722  00000+0  67346-3 0  9990
2 47687  97.4164  65.6129 0004653 307.2981  52.7830 15.20619725108857
FLOCK 4S-45             
1 47688U 21006EP  23005.40005714  .00021489  00000+0  98164-3 0  9997
2 47688  97.4179  65.5673 0007853 289.6317  70.4070 15.20569259108846
FLOCK 4S-41             
1 47698U 21006ER  23004.10890711  .00017309  00000+0  78855-3 0  9994
2 47698  97.4218  64.9736 0008221 308.5570  51.6312 15.20706558107693
FLOCK 4X-8              
1 50992U 22002J   23005.15561535  .00009488  00000+0  44849-3 0  9992
2 50992  97.4655  74.6413 0012085  91.3141 268.9478 15.19546529 54003
FLOCK 4X-44             
1 50994U 22002L   23005.42379158  .00009581  00000+0  45149-3 0  9990
2 50994  97.4673  74.9946 0011593  89.0039 271.2524 15.19657597 54043
FLOCK 4X-2              
1 50996U 22002N   23005.42353355  .00008991  00000+0  42574-3 0  9996
2 50996  97.4663  74.9520 0012024  90.0617 270.1996 15.19501484 54040
FLOCK 4X-20             
1 50997U 22002P   23005.22284599  .00010002  00000+0  47232-3 0  9990
2 50997  97.4665  74.7507 0011910  91.4213 268.8386 15.19566360 54014
FLOCK 4X-30             
1 51000U 22002S   23003.44548779  .00022247  00000+0  10446-2 0  9991
2 51000  97.4616  72.7410 0012060  89.1325 271.1291 15.19575117 53743
FLOCK 4X-22             
1 51003U 22002V   23005.41692352  .00019979  00000+0  93809-3 0  9993
2 51003  97.4646  74.8777 0012104  92.4341 267.8279 15.19599017 54049
FLOCK 4X-5              
1 51004U 22002W   23004.42739856  .00009046  00000+0  42780-3 0  9991
2 51004  97.4623  73.7751 0012384  87.8021 272.4631 15.19541222 53899
FLOCK 4X-41             
1 51005U 22002X   23005.41336673  .00013573  00000+0  64009-3 0  9990
2 51005  97.4604  74.6744 0011846  81.6514 278.6063 15.19536149 54049
FLOCK 4X-3              
1 51006U 22002Y   23005.14914570  .00013784  00000+0  64890-3 0  9991
2 51006  97.4663  74.6900 0012521  89.1969 271.0701 15.19586028 54000
FLOCK 4X-18             
1 51007U 22002Z   23004.94945976  .00026930  00000+0  12625-2 0  9998
2 51007  97.4624  74.3171 0012559  86.7137 273.5535 15.19584081 53970
FLOCK 4X-37             
1 51009U 22002AB  23005.14603216  .00013407  00000+0  63116-3 0  9998
2 51009  97.4671  74.7324 0012639  88.3041 271.9641 15.19591094 54006
FLOCK 4X-15             
1 51010U 22002AC  23005.13981172  .00011651  00000+0  54898-3 0  9995
2 51010  97.4667  74.7609 0012664  87.4324 272.8360 15.19593334 54008
FLOCK 4X-29             
1 51011U 22002AD  23005.14395027  .00022631  00000+0  10630-2 0  9990
2 51011  97.4621  74.4907 0012410  83.9445 276.3204 15.19556311 54001
FLOCK 4X-27             
1 51012U 22002AE  23005.40616094  .00021836  00000+0  10248-2 0  9991
2 51012  97.4656  74.9364 0012889  90.4173 269.8538 15.19587562 54046
FLOCK 4X-12             
1 51015U 22002AH  23005.46585730  .00011326  00000+0  53416-3 0  9990
2 51015  97.4662  75.0203 0013007  84.8885 275.3834 15.19565699 54059
FLOCK 4X-25             
1 51016U 22002AJ  23005.40436492  .00011760  00000+0  55383-3 0  9992
2 51016  97.4641  74.8749 0012713  91.5738 268.6953 15.19610521 54045
FLOCK 4X-1              
1 51017U 22002AK  23005.13459875  .00024463  00000+0  11465-2 0  9999
2 51017  97.4623  74.5322 0013015  85.5357 274.7364 15.19610418 54001
FLOCK 4X-42             
1 51018U 22002AL  23005.46685316  .00018123  00000+0  85016-3 0  9997
2 51018  97.4609  74.7822 0012714  81.3257 278.9418 15.19644475 54052
FLOCK 4X-16             
1 51020U 22002AN  23005.00113032  .00024473  00000+0  11476-2 0  9994
2 51020  97.4619  74.3493 0012749  82.3184 277.9498 15.19594446 53984
FLOCK 4X-38             
1 51023U 22002AR  23005.46103717  .00023862  00000+0  11172-2 0  9990
2 51023  97.4663  75.0490 0013234  86.6317 273.6432 15.19647739 54050
FLOCK 4X-32             
1 51024U 22002AS  23005.45998982  .00016202  00000+0  76131-3 0  9993
2 51024  97.4672  75.0700 0013093  83.9114 276.3613 15.19607914 54055
FLOCK 4X-26             
1 51026U 22002AU  23005.45600633  .00020147  00000+0  94561-3 0  9998
2 51026  97.4622  74.8773 0012791  84.9919 275.2775 15.19602323 54053
FLOCK 4X-43             
1 51027U 22002AV  23005.12827747  .00024150  00000+0  11320-2 0  9999
2 51027  97.4625  74.5289 0012959  83.6811 276.5899 15.19607663 54007
FLOCK 4X-13             
1 51028U 22002AW  23005.19098453  .00020419  00000+0  95795-3 0  9994
2 51028  97.4617  74.5916 0012843  81.9696 278.2995 15.19613836 54016
FLOCK 4X-39             
1 51029U 22002AX  23005.45010365  .00016171  00000+0  76302-3 0  9993
2 51029  97.4628  74.8594 0012322  78.7244 281.5375 15.19472599 54051
FLOCK 4X-17             
1 51035U 22002BD  23005.45129039  .00020821  00000+0  97746-3 0  9991
2 51035  97.4662  74.8795 0009279  90.1307 270.0991 15.19622234 54043
FLOCK 4X-10             
1 51037U 22002BF  23005.42655409  .00019620  00000+0  92101-3 0  9990
2 51037  97.4674  74.9810 0011758  88.8562 271.4019 15.19614687 54048
FLOCK 4X-36             
1 51039U 22002BH  23003.12498052  .00021716  00000+0  10211-2 0  9996
2 51039  97.4661  72.6879 0010500  97.6910 262.5517 15.19548961 53690
FLOCK 4X-21             
1 51040U 22002BJ  23005.17748045  .00026106  00000+0  12241-2 0  9998
2 51040  97.4643  74.5752 0009503  89.0521 271.1802 15.19615112 54009
FLOCK 4X-31             
1 51041U 22002BK  23004.71868510  .00003516  00000+0  16841-3 0  9999
2 51041  97.4605  73.9650 0009814  82.6989 277.4409 15.19558341 53933
FLOCK 4X-34             
1 51042U 22002BL  23005.44227511  .00010076  00000+0  47643-3 0  9994
2 51042  97.4673  74.9448 0009872  91.9309 268.3057 15.19540243 54041
FLOCK 4X-6              
1 51043U 22002BM  23003.14024432  .00009540  00000+0  45140-3 0  9991
2 51043  97.4654  72.5828 0009652  95.6621 264.5715 15.19533635 53697
FLOCK 4X-28             
1 51045U 22002BP  23005.43847763  .00009028  00000+0  42691-3 0  9996
2 51045  97.4623  74.7293 0010010  80.8723 279.3644 15.19567913 54045
FLOCK 4X-19             
1 51046U 22002BQ  23005.43740469  .00018322  00000+0  86125-3 0  9999
2 51046  97.4659  74.9051 0009855  90.0270 270.2094 15.19601042 54045
FLOCK 4X-9              
1 51047U 22002BR  23005.43436985  .00018801  00000+0  88331-3 0  9998
2 51047  97.4669  74.9424 0010335  91.9407 268.3011 15.19609362 54048
FLOCK 4X-35             
1 51048U 22002BS  23005.43190559  .00010179  00000+0  48049-3 0  9995
2 51048  97.4598  74.6360 0009832  84.5833 275.6524 15.19596471 54043
FLOCK 4X-11             
1 51049U 22002BT  23005.44635995  .00010005  00000+0  47285-3 0  9994
2 51049  97.4611  74.6670 0009539  88.9504 271.2823 15.19560098 54041
FLOCK 4X-40             
1 51052U 22002BW  23005.44749843  .00009662  00000+0  45506-3 0  9997
2 51052  97.4613  74.6604 0008845  88.9129 271.3120 15.19698691 54048
FLOCK 4X-24             
1 51056U 22002CA  23004.13537666  .00010603  00000+0  50145-3 0  9996
2 51056  97.4596  73.3889 0008564  84.1340 276.0042 15.19529974 53843
FLOCK 4X-4              
1 51064U 22002CJ  23005.16403080  .00021760  00000+0  10209-2 0  9993
2 51064  97.4628  74.4697 0010160  82.4180 277.8208 15.19628060 54003
FLOCK 4X-7              
1 51065U 22002CK  23005.43576200  .00017487  00000+0  82206-3 0  9997
2 51065  97.4648  74.8677 0009958  89.8188 270.4188 15.19606418 54043
FLOCK 4X-14             
1 51066U 22002CL  23004.64120043  .00011801  00000+0  55757-3 0  9995
2 51066  97.4686  74.2378 0010561  93.3156 266.9287 15.19518919 53929
